{
    "links": {
        "self": "http://www.neowsapp.com/rest/v1/neo/3654482?api_key=iIulBulltgU6a56xZRHN4H3l9WmuAYTsLGpBGhQ2"
    },
    "id": "3654482",
    "neo_reference_id": "3654482",
    "name": "(2013 XZ20)",
    "designation": "2013 XZ20",
    "nasa_jpl_url": "http://ssd.jpl.nasa.gov/sbdb.cgi?sstr=3654482",
    "absolute_magnitude_h": 23.0,
    "estimated_diameter": {
        "kilometers": {
            "estimated_diameter_min": 0.0667659413,
            "estimated_diameter_max": 0.1492931834
        },
        "meters": {
            "estimated_diameter_min": 66.7659413495,
            "estimated_diameter_max": 149.2931834393
        },
        "miles": {
            "estimated_diameter_min": 0.0414864197,
            "estimated_diameter_max": 0.0927664547
        },
        "feet": {
            "estimated_diameter_min": 219.0483710172,
            "estimated_diameter_max": 489.807047955
        }
    },
    "is_potentially_hazardous_asteroid": false,
    "close_approach_data": [
        {
            "close_approach_date": "2006-12-29",
            "close_approach_date_full": "2006-Dec-29 11:58",
            "epoch_date_close_approach": 1167393480000,
            "relative_velocity": {
                "kilometers_per_second": "11.9320238754",
                "kilometers_per_hour": "42955.2859516099",
                "miles_per_hour": "26690.7442069878"
            },
            "miss_distance": {
                "astronomical": "0.2526064425",
                "lunar": "98.2639061325",
                "kilometers": "37789385.746277475",
                "miles": "23481235.463380155"
            },
            "orbiting_body": "Earth"
        },
        {
            "close_approach_date": "2013-12-16",
            "close_approach_date_full": "2013-Dec-16 15:30",
            "epoch_date_close_approach": 1387207800000,
            "relative_velocity": {
                "kilometers_per_second": "10.3391228498",
                "kilometers_per_hour": "37220.8422594402",
                "miles_per_hour": "23127.5839028172"
            },
            "miss_distance": {
                "astronomical": "0.1393475134",
                "lunar": "54.2061827126",
                "kilometers": "20846091.194436458",
                "miles": "12953160.4221928004"
            },
            "orbiting_body": "Earth"
        },
        {
            "close_approach_date": "2020-12-03",
            "close_approach_date_full": "2020-Dec-03 01:55",
            "epoch_date_close_approach": 1606960500000,
            "relative_velocity": {
                "kilometers_per_second": "14.2038345715",
                "kilometers_per_hour": "51133.8044572877",
                "miles_per_hour": "31772.5575529186"
            },
            "miss_distance": {
                "astronomical": "0.3459383957",
                "lunar": "134.5700359273",
                "kilometers": "51751647.147937159",
                "miles": "32156982.3986404342"
            },
            "orbiting_body": "Earth"
        }
    ],
    "orbital_data": {
        "orbit_id": "11",
        "orbit_determination_date": "2017-04-06 08:43:20",
        "first_observation_date": "2013-12-11",
        "last_observation_date": "2014-01-11",
        "data_arc_in_days": 31,
        "observations_used": 35,
        "orbit_uncertainty": "7",
        "minimum_orbit_intersection": ".124586",
        "jupiter_tisserand_invariant": "3.360",
        "epoch_osculation": "2459000.5",
        "eccentricity": ".516878549503396",
        "semi_major_axis": "2.292853055770272",
        "inclination": "16.2586992394009",
        "ascending_node_longitude": "85.87365487541679",
        "orbital_period": "1268.127033369158",
        "perihelion_distance": "1.107726494079305",
        "perihelion_argument": "3.6035071913108",
        "aphelion_distance": "3.477979617461239",
        "perihelion_time": "2459187.045395936641",
        "mean_anomaly": "307.0428902073243",
        "mean_motion": ".2838832313538436",
        "equinox": "J2000",
        "orbit_class": {
            "orbit_class_type": "AMO",
            "orbit_class_description": "Near-Earth asteroid orbits similar to that of 1221 Amor",
            "orbit_class_range": "1.017 AU < q (perihelion) < 1.3 AU"
        }
    },
    "is_sentry_object": false
}